IRIDIUM 136             
1 42962U 17061H   24256.61572511  .00000161  00000+0  50541-4 0  9991
2 42962  86.3933 293.7783 0002077  90.1146 270.0288 14.34217612362732
